STARLINK-31632          
1 59326U 24057G   26068.39265222 -.00003432  00000+0 -11518-3 0  9998
2 59326  42.9986 199.9940 0001386 285.8027  74.2672 15.27596218109662
FLOCK 4G-6              
1 62660U 25009BD  26068.71061311  .00012261  00000+0  45910-3 0  9991
2 62660  97.3980 150.7943 0002380 348.2637  11.8546 15.27432125121307
